[{"OBJECT_NAME":"STARLINK-3326","OBJECT_ID":"2022-001AT","EPOCH":"2026-03-09T14:22:13.926720","MEAN_MOTION":15.08843961,"ECCENTRICITY":9.66e-5,"INCLINATION":53.2179,"RA_OF_ASC_NODE":179.5302,"ARG_OF_PERICENTER":98.2232,"MEAN_ANOMALY":261.8869,"EPHEMERIS_TYPE":0,"CLASSIFICATION_TYPE":"U","NORAD_CAT_ID":50844,"ELEMENT_SET_NO":999,"REV_AT_EPOCH":23025,"BSTAR":-9.2836e-5,"MEAN_MOTION_DOT":-1.765e-5,"MEAN_MOTION_DDOT":0},{"OBJECT_NAME":"CZ-4 DEB","OBJECT_ID":"2006-046L","EPOCH":"2026-03-09T05:26:57.251328","MEAN_MOTION":15.20206122,"ECCENTRICITY":0.00567956,"INCLINATION":97.8211,"RA_OF_ASC_NODE":163.0679,"ARG_OF_PERICENTER":229.3561,"MEAN_ANOMALY":130.2727,"EPHEMERIS_TYPE":0,"CLASSIFICATION_TYPE":"U","NORAD_CAT_ID":35378,"ELEMENT_SET_NO":999,"REV_AT_EPOCH":2541,"BSTAR":0.0021311714,"MEAN_MOTION_DOT":0.00048409,"MEAN_MOTION_DDOT":0}]
